{"type": "FeatureCollection", "features": [ {"type": "Feature", "properties": {"norad_id": 36047, "name": "COSMOS 2251 DEB", "group": "cosmos-2251-debris", "lat": -61.16810063226867, "lon": -74.67380985374548, "alt_km": 580.9890347930404, "timestamp": "2025-12-21T09:37:23.051954+00:00", "meta": {"OBJECT_NAME": "COSMOS 2251 DEB", "OBJECT_ID": "1993-036AXJ", "EPOCH": "2025-12-18T04:53:35.477376", "MEAN_MOTION": 14.9621864, "ECCENTRICITY": 0.00084577, "INCLINATION": 74.0358, "RA_OF_ASC_NODE": 323.1177, "ARG_OF_PERICENTER": 350.3843, "MEAN_ANOMALY": 9.7178, "EPHEMERIS_TYPE": 0, "CLASSIFICATION_TYPE": "U", "NORAD_CAT_ID": 36047, "ELEMENT_SET_NO": 999, "REV_AT_EPOCH": 66021, "BSTAR": 0.0023104884, "MEAN_MOTION_DOT": 0.00026146, "MEAN_MOTION_DDOT": 0}, "tle": {"line1": "1 36047U 93036AXJ 25352.20388284  .00026146  00000+0  23105-2 0  9994", "line2": "2 36047  74.0358 323.1177 0008457 350.3843   9.7178 14.96218640660211"}}, "geometry": {"type": "Point", "coordinates": [-74.67380985374548, -61.16810063226867]}}, {"type": "Feature", "properties": {"norad_id": 36048, "name": "COSMOS 2251 DEB", "group": "cosmos-2251-debris", "lat": -26.055802267410584, "lon": 111.39110348609721, "alt_km": 781.786036397365, "timestamp": "2025-12-21T09:37:23.051964+00:00", "meta": {"OBJECT_NAME": "COSMOS 2251 DEB", "OBJECT_ID": "1993-036AXK", "EPOCH": "2025-12-20T19:26:44.380896", "MEAN_MOTION": 14.37864585, "ECCENTRICITY": 0.00269473, "INCLINATION": 74.0573, "RA_OF_ASC_NODE": 284.4429, "ARG_OF_PERICENTER": 332.9833, "MEAN_ANOMALY": 57.801, "EPHEMERIS_TYPE": 0, "CLASSIFICATION_TYPE": "U", "NORAD_CAT_ID": 36048, "ELEMENT_SET_NO": 999, "REV_AT_EPOCH": 85618, "BSTAR": 0.00018805853, "MEAN_MOTION_DOT": 5.43e-06, "MEAN_MOTION_DDOT": 0}, "tle": {"line1": "1 36048U 93036AXK 25354.81023589  .00000543  00000+0  18806-3 0  9994", "line2": "2 36048  74.0573 284.4429 0026947 332.9833  57.8010 14.37864585856181"}}, "geometry": {"type": "Point", "coordinates": [111.39110348609721, -26.055802267410584]}}, {"type": "Feature", "properties": {"norad_id": 36049, "name": "COSMOS 2251 DEB", "group": "cosmos-2251-debris", "lat": -8.118114943145448, "lon": 100.2522888183481, "alt_km": 696.5363596940415, "timestamp": "2025-12-21T09:37:23.051978+00:00", "meta": {"OBJECT_NAME": "COSMOS 2251 DEB", "OBJECT_ID": "1993-036AXL", "EPOCH": "2025-12-19T00:11:29.887584", "MEAN_MOTION": 14.62222603, "ECCENTRICITY": 0.00103942, "INCLINATION": 74.0312, "RA_OF_ASC_NODE": 107.1751, "ARG_OF_PERICENTER": 195.1693, "MEAN_ANOMALY": 164.9164, "EPHEMERIS_TYPE": 0, "CLASSIFICATION_TYPE": "U", "NORAD_CAT_ID": 36049, "ELEMENT_SET_NO": 999, "REV_AT_EPOCH": 85456, "BSTAR": 0.00099664593, "MEAN_MOTION_DOT": 4.999e-05, "MEAN_MOTION_DDOT": 0}, "tle": {"line1": "1 36049U 93036AXL 25353.00798481  .00004999  00000+0  99665-3 0  9996", "line2": "2 36049  74.0312 107.1751 0010394 195.1693 164.9164 14.62222603854561"}}, "geometry": {"type": "Point", "coordinates": [100.2522888183481, -8.118114943145448]}}, {"type": "Feature", "properties": {"norad_id": 36050, "name": "COSMOS 2251 DEB", "group": "cosmos-2251-debris", "lat": -13.08074846756326, "lon": 0.20329987736047114, "alt_km": 536.6695386963738, "timestamp": "2025-12-21T09:37:23.051988+00:00", "meta": {"OBJECT_NAME": "COSMOS 2251 DEB", "OBJECT_ID": "1993-036AXM", "EPOCH": "2025-12-15T21:35:48.459552", "MEAN_MOTION": 15.01080492, "ECCENTRICITY": 0.00887608, "INCLINATION": 74.0305, "RA_OF_ASC_NODE": 187.588, "ARG_OF_PERICENTER": 266.4769, "MEAN_ANOMALY": 92.6264, "EPHEMERIS_TYPE": 0, "CLASSIFICATION_TYPE": "U", "NORAD_CAT_ID": 36050, "ELEMENT_SET_NO": 999, "REV_AT_EPOCH": 67082, "BSTAR": 0.00042445305, "MEAN_MOTION_DOT": 5.866e-05, "MEAN_MOTION_DDOT": 0}, "tle": {"line1": "1 36050U 93036AXM 25349.89986643  .00005866  00000+0  42445-3 0  9997", "line2": "2 36050  74.0305 187.5880 0088760 266.4769  92.6264 15.01080492670823"}}, "geometry": {"type": "Point", "coordinates": [0.20329987736047114, -13.08074846756326]}}, {"type": "Feature", "properties": {"norad_id": 36053, "name": "COSMOS 2251 DEB", "group": "cosmos-2251-debris", "lat": 4.186995912813056, "lon": -45.147728486591056, "alt_km": 705.1971859532541, "timestamp": "2025-12-21T09:37:23.051999+00:00", "meta": {"OBJECT_NAME": "COSMOS 2251 DEB", "OBJECT_ID": "1993-036AXQ", "EPOCH": "2025-12-19T02:27:11.674944", "MEAN_MOTION": 14.57252603, "ECCENTRICITY": 0.00325446, "INCLINATION": 73.8697, "RA_OF_ASC_NODE": 140.476, "ARG_OF_PERICENTER": 87.3695, "MEAN_ANOMALY": 273.1193, "EPHEMERIS_TYPE": 0, "CLASSIFICATION_TYPE": "U", "NORAD_CAT_ID": 36053, "ELEMENT_SET_NO": 999, "REV_AT_EPOCH": 87537, "BSTAR": 0.0010759038, "MEAN_MOTION_DOT": 4.872e-05, "MEAN_MOTION_DDOT": 0}, "tle": {"line1": "1 36053U 93036AXQ 25353.10221846  .00004872  00000+0  10759-2 0  9994", "line2": "2 36053  73.8697 140.4760 0032544  87.3695 273.1193 14.57252603875378"}}, "geometry": {"type": "Point", "coordinates": [-45.147728486591056, 4.186995912813056]}}, {"type": "Feature", "properties": {"norad_id": 36058, "name": "COSMOS 2251 DEB", "group": "cosmos-2251-debris", "lat": -12.192174682012949, "lon": 13.402328584654384, "alt_km": 730.9306707450905, "timestamp": "2025-12-21T09:37:23.052009+00:00", "meta": {"OBJECT_NAME": "COSMOS 2251 DEB", "OBJECT_ID": "1993-036AXV", "EPOCH": "2025-12-20T18:52:04.818432", "MEAN_MOTION": 14.58726339, "ECCENTRICITY": 0.00440828, "INCLINATION": 74.0229, "RA_OF_ASC_NODE": 18.1226, "ARG_OF_PERICENTER": 150.2394, "MEAN_ANOMALY": 210.1292, "EPHEMERIS_TYPE": 0, "CLASSIFICATION_TYPE": "U", "NORAD_CAT_ID": 36058, "ELEMENT_SET_NO": 999, "REV_AT_EPOCH": 66228, "BSTAR": 0.0002931852, "MEAN_MOTION_DOT": 1.357e-05, "MEAN_MOTION_DDOT": 0}, "tle": {"line1": "1 36058U 93036AXV 25354.78616688  .00001357  00000+0  29319-3 0  9994", "line2": "2 36058  74.0229  18.1226 0044082 150.2394 210.1292 14.58726339662289"}}, "geometry": {"type": "Point", "coordinates": [13.402328584654384, -12.192174682012949]}}, {"type": "Feature", "properties": {"norad_id": 36060, "name": "COSMOS 2251 DEB", "group": "cosmos-2251-debris", "lat": 74.01804927866044, "lon": -51.29195347228277, "alt_km": 752.317187240863, "timestamp": "2025-12-21T09:37:23.052043+00:00", "meta": {"OBJECT_NAME": "COSMOS 2251 DEB", "OBJECT_ID": "1993-036AXX", "EPOCH": "2025-12-20T23:13:01.329600", "MEAN_MOTION": 14.42015766, "ECCENTRICITY": 0.0015533, "INCLINATION": 74.028, "RA_OF_ASC_NODE": 219.3084, "ARG_OF_PERICENTER": 315.4296, "MEAN_ANOMALY": 44.561, "EPHEMERIS_TYPE": 0, "CLASSIFICATION_TYPE": "U", "NORAD_CAT_ID": 36060, "ELEMENT_SET_NO": 999, "REV_AT_EPOCH": 85128, "BSTAR": 0.0002159, "MEAN_MOTION_DOT": 6.83e-06, "MEAN_MOTION_DDOT": 0}, "tle": {"line1": "1 36060U 93036AXX 25354.96737650  .00000683  00000+0  21590-3 0  9994", "line2": "2 36060  74.0280 219.3084 0015533 315.4296  44.5610 14.42015766851282"}}, "geometry": {"type": "Point", "coordinates": [-51.29195347228277, 74.01804927866044]}}, {"type": "Feature", "properties": {"norad_id": 36061, "name": "COSMOS 2251 DEB", "group": "cosmos-2251-debris", "lat": 12.093848800281101, "lon": -12.574233135289807, "alt_km": 765.5715436480432, "timestamp": "2025-12-21T09:37:23.052055+00:00", "meta": {"OBJECT_NAME": "COSMOS 2251 DEB", "OBJECT_ID": "1993-036AXY", "EPOCH": "2025-12-20T16:49:06.144384", "MEAN_MOTION": 14.33720119, "ECCENTRICITY": 0.00368808, "INCLINATION": 74.0242, "RA_OF_ASC_NODE": 345.1877, "ARG_OF_PERICENTER": 70.6074, "MEAN_ANOMALY": 289.9058, "EPHEMERIS_TYPE": 0, "CLASSIFICATION_TYPE": "U", "NORAD_CAT_ID": 36061, "ELEMENT_SET_NO": 999, "REV_AT_EPOCH": 65218, "BSTAR": 0.00020724072, "MEAN_MOTION_DOT": 5.54e-06, "MEAN_MOTION_DDOT": 0}, "tle": {"line1": "1 36061U 93036AXY 25354.70076556  .00000554  00000+0  20724-3 0  9993", "line2": "2 36061  74.0242 345.1877 0036880  70.6074 289.9058 14.33720119652185"}}, "geometry": {"type": "Point", "coordinates": [-12.574233135289807, 12.093848800281101]}}, {"type": "Feature", "properties": {"norad_id": 36073, "name": "COSMOS 2251 DEB", "group": "cosmos-2251-debris", "lat": 30.170218645359597, "lon": 117.10294648051756, "alt_km": 785.6557734191365, "timestamp": "2025-12-21T09:37:23.052065+00:00", "meta": {"OBJECT_NAME": "COSMOS 2251 DEB", "OBJECT_ID": "1993-036AYL", "EPOCH": "2025-12-18T03:58:06.481920", "MEAN_MOTION": 14.34959898, "ECCENTRICITY": 0.00240895, "INCLINATION": 74.0326, "RA_OF_ASC_NODE": 312.6126, "ARG_OF_PERICENTER": 19.0207, "MEAN_ANOMALY": 341.1839, "EPHEMERIS_TYPE": 0, "CLASSIFICATION_TYPE": "U", "NORAD_CAT_ID": 36073, "ELEMENT_SET_NO": 999, "REV_AT_EPOCH": 70285, "BSTAR": 0.0001893667, "MEAN_MOTION_DOT": 5.14e-06, "MEAN_MOTION_DDOT": 0}, "tle": {"line1": "1 36073U 93036AYL 25352.16535280  .00000514  00000+0  18937-3 0  9997", "line2": "2 36073  74.0326 312.6126 0024089  19.0207 341.1839 14.34959898702857"}}, "geometry": {"type": "Point", "coordinates": [117.10294648051756, 30.170218645359597]}}, {"type": "Feature", "properties": {"norad_id": 36074, "name": "COSMOS 2251 DEB", "group": "cosmos-2251-debris", "lat": -18.788152829157024, "lon": 149.94757116588923, "alt_km": 775.1981705075987, "timestamp": "2025-12-21T09:37:23.052075+00:00", "meta": {"OBJECT_NAME": "COSMOS 2251 DEB", "OBJECT_ID": "1993-036AYM", "EPOCH": "2025-12-17T04:55:34.739616", "MEAN_MOTION": 14.43760583, "ECCENTRICITY": 0.00415505, "INCLINATION": 73.9924, "RA_OF_ASC_NODE": 332.1608, "ARG_OF_PERICENTER": 62.4035, "MEAN_ANOMALY": 298.1332, "EPHEMERIS_TYPE": 0, "CLASSIFICATION_TYPE": "U", "NORAD_CAT_ID": 36074, "ELEMENT_SET_NO": 999, "REV_AT_EPOCH": 85974, "BSTAR": 0.00075567049, "MEAN_MOTION_DOT": 2.571e-05, "MEAN_MOTION_DDOT": 0}, "tle": {"line1": "1 36074U 93036AYM 25351.20526319  .00002571  00000+0  75567-3 0  9992", "line2": "2 36074  73.9924 332.1608 0041550  62.4035 298.1332 14.43760583859746"}}, "geometry": {"type": "Point", "coordinates": [149.94757116588923, -18.788152829157024]}}]}